OBJECT_NAME,OBJECT_ID,EPOCH,MEAN_MOTION,ECCENTRICITY,INCLINATION,RA_OF_ASC_NODE,ARG_OF_PERICENTER,MEAN_ANOMALY,EPHEMERIS_TYPE,CLASSIFICATION_TYPE,NORAD_CAT_ID,ELEMENT_SET_NO,REV_AT_EPOCH,BSTAR,MEAN_MOTION_DOT,MEAN_MOTION_DDOT
ONEWEB-0309,2021-075W,2026-06-13T01:32:44.963520,13.17648283,.00018945,87.9134,6.6834,102.8529,257.2814,0,U,49095,999,23303,.45414656E-4,.31E-6,0
ONEWEB-0310,2021-075X,2026-06-13T06:30:38.496096,13.12444337,.00018016,87.8937,351.4596,90.7129,269.4206,0,U,49096,999,23467,.98964105E-3,.369E-5,0
ONEWEB-0311,2021-075Y,2026-06-13T01:42:29.079360,13.17649622,.0002281,87.9136,6.6817,83.2010,276.9381,0,U,49097,999,23308,.17067035E-3,.79E-6,0
ONEWEB-0312,2021-075Z,2026-06-13T02:04:22.632384,13.17652706,.00021404,87.9133,6.6894,92.7400,267.3977,0,U,49098,999,23306,.93103394E-4,.49E-6,0
ONEWEB-0313,2021-075AA,2026-06-13T02:11:25.812672,13.17648492,.00019774,87.9131,6.6941,86.5192,273.6166,0,U,49099,999,23305,.24871864E-3,.109E-5,0
ONEWEB-0314,2021-075AB,2026-06-13T06:51:05.527296,13.17648674,.00022299,87.9144,6.6278,92.3353,267.8034,0,U,49100,999,23305,.65592483E-4,.38E-6,0
ONEWEB-0315,2021-075AC,2026-06-13T05:51:36.154944,13.12443577,.00021371,87.8946,351.4288,83.0632,277.0739,0,U,49101,999,23465,-.10308571E-2,-.358E-5,0
ONEWEB-0316,2021-075AD,2026-06-13T05:07:03.903168,13.18686581,.00019221,87.9160,336.2471,91.3275,268.8077,0,U,49102,999,23668,.43053762E-4,.3E-6,0
ONEWEB-0317,2021-075AE,2026-06-13T05:56:28.981824,13.12444494,.0001432,87.8950,351.4521,113.3352,246.7927,0,U,49103,999,23467,-.82039726E-3,-.282E-5,0
ONEWEB-0318,2021-075AF,2026-06-13T05:02:12.660000,13.18685651,.00020492,87.9167,336.2490,87.3553,272.7814,0,U,49104,999,23664,.80622647E-4,.45E-6,0
ONEWEB-0319,2021-075AG,2026-06-13T01:44:54.284064,13.17648529,.0002268,87.9134,6.6866,77.6684,282.4701,0,U,49105,999,23306,.30529839E-3,.131E-5,0
ONEWEB-0323,2021-075AH,2026-06-13T05:29:38.940288,13.12442709,.00023417,87.8948,351.4364,83.7216,276.4180,0,U,49106,999,23403,-.73473614E-3,-.252E-5,0
ONEWEB-0329,2021-075AJ,2026-06-13T01:57:03.293568,13.17648954,.0002,87.9136,6.6858,89.3166,270.8195,0,U,49107,999,23304,.17575972E-3,.81E-6,0
ONEWEB-0330,2021-075AK,2026-06-13T06:09:59.251392,13.17649386,.00019985,87.9138,6.6708,93.3559,266.7801,0,U,49108,999,23310,.14469746E-3,.69E-6,0
ONEWEB-0292,2021-083A,2026-06-13T03:04:32.722464,13.13466241,.0001887,87.8942,321.0467,91.1033,269.0313,0,U,49186,999,23039,.2821944E-2,.1043E-4,0
ONEWEB-0303,2021-083B,2026-06-13T04:57:21.314016,13.18686393,.00020093,87.9162,336.2487,89.5034,270.6328,0,U,49187,999,22945,.9115122E-5,.17E-6,0
ONEWEB-0306,2021-083C,2026-06-13T04:42:46.870848,13.18686715,.00017239,87.9168,336.2383,98.5092,261.6235,0,U,49188,999,22949,-.56136061E-4,-.9E-7,0
ONEWEB-0307,2021-083D,2026-06-13T04:45:42.182496,13.13469431,.00019538,87.8950,321.0297,94.5277,265.6076,0,U,49189,999,23040,.6712826E-3,.258E-5,0
ONEWEB-0320,2021-083E,2026-06-13T05:11:54.449952,13.18685452,.0001817,87.9157,336.2528,93.0918,267.0422,0,U,49190,999,22945,.11637905E-4,.18E-6,0
ONEWEB-0321,2021-083F,2026-06-13T06:16:50.507616,13.20772157,.00017739,87.9191,275.2171,106.7245,253.4083,0,U,49191,999,23631,.18314054E-3,.87E-6,0
ONEWEB-0322,2021-083G,2026-06-13T04:39:34.462368,13.13479579,.00014164,87.8948,321.0310,97.0611,263.0679,0,U,49192,999,23039,-.45636013E-2,-.1654E-4,0
ONEWEB-0324,2021-083H,2026-06-13T04:33:03.441888,13.18685246,.00019452,87.9169,336.2447,97.4461,262.6892,0,U,49193,999,22947,.23795257E-4,.22E-6,0
ONEWEB-0325,2021-083J,2026-06-13T04:37:55.346880,13.18685440,.00018164,87.9158,336.2529,89.6459,270.4881,0,U,49194,999,22948,-.40018512E-4,-.3E-7,0
ONEWEB-0326,2021-083K,2026-06-13T04:59:58.473024,13.18684760,.00020369,87.9167,336.2475,85.9955,274.1410,0,U,49195,999,22947,.10951833E-3,.56E-6,0
ONEWEB-0327,2021-083L,2026-06-13T04:59:34.194624,13.18684567,.00020076,87.9159,336.2521,81.1109,279.0251,0,U,49196,999,22949,.27048764E-4,.24E-6,0
ONEWEB-0328,2021-083M,2026-06-13T04:24:58.584096,13.13470200,.00019288,87.8957,321.0058,99.5559,260.5788,0,U,49197,999,23037,.65017821E-3,.25E-5,0
ONEWEB-0331,2021-083N,2026-06-13T04:50:03.626304,13.18686301,.00021457,87.9167,336.2426,86.9413,273.1965,0,U,49198,999,22948,-.11214018E-4,.8E-7,0
ONEWEB-0333,2021-083P,2026-06-13T04:17:39.524352,13.13470612,.00018171,87.8946,321.0336,94.4633,265.6704,0,U,49199,999,23038,.31447213E-3,.128E-5,0
ONEWEB-0334,2021-083Q,2026-06-13T06:41:47.651136,13.21013455,.00010892,87.9190,275.2251,125.8973,234.2261,0,U,49200,999,23627,.66788966E-1,.27348E-3,0
ONEWEB-0335,2021-083R,2026-06-13T04:10:20.958816,13.13470845,.00019906,87.8948,321.0316,93.2027,266.9330,0,U,49201,999,23039,.20641718E-4,.2E-6,0
